2025-292H               
1 67000U 25292H   25353.92062907  .00004295  00000+0  30665-3 0  9998
2 67000  97.6581  66.4150 0014153 252.6127 107.3552 15.04975509  1348
2025-292J               
1 67001U 25292J   25353.92445363  .00003599  00000+0  26181-3 0  9994
2 67001  97.6561  66.4075 0014377 241.6916 118.2860 15.04374679  1473
ZK-1A R/B               
1 67002U 25292K   25353.67010519  .00130666  67147-5  62516-3 0  9997
2 67002  97.7225  67.0138 0212171 340.4645  18.8564 15.56781805  1474
STARLINK-35660          
1 67003U 25293A   25353.91668981 -.01131101  38204-3 -32927-2 0  9998
2 67003  69.9945 302.9602 0003914 267.5711 186.9081 15.92679957  1338
STARLINK-35913          
1 67004U 25293B   25353.91668981 -.01134610  38441-3 -32948-2 0  9993
2 67004  69.9946 302.9577 0003881 267.7496 188.7476 15.92728353  1339
STARLINK-36148          
1 67005U 25293C   25353.91668981 -.01140342  38821-3 -33026-2 0  9993
2 67005  69.9948 302.9556 0003959 268.5101 190.1334 15.92780013  1338
STARLINK-36156          
1 67006U 25293D   25353.91668981 -.01151115  39547-3 -33137-2 0  9993
2 67006  69.9947 302.9489 0003943 267.5616 196.1730 15.92897948  1338
STARLINK-36123          
1 67007U 25293E   25353.91668981 -.01144582  39112-3 -33044-2 0  9999
2 67007  69.9945 302.9517 0003911 267.6451 193.7907 15.92841746  1336
STARLINK-36163          
1 67008U 25293F   25353.91668981 -.01157352  39971-3 -33202-2 0  9998
2 67008  69.9948 302.9454 0003893 267.2511 199.5293 15.92965362  1335
STARLINK-36118          
1 67009U 25293G   25353.91668981 -.01157570  40008-3 -33111-2 0  9993
2 67009  69.9947 302.9425 0003898 266.2848 202.9862 15.93021625  1304
STARLINK-36189          
1 67010U 25293H   25353.91668981 -.01171558  40950-3 -33320-2 0  9995
2 67010  69.9948 302.9371 0003911 266.4810 207.2154 15.93133170  1338
STARLINK-36167          
1 67011U 25293J   25353.91668981 -.01168212  40710-3 -33328-2 0  9991
2 67011  69.9943 302.9397 0003886 266.5494 204.6149 15.93073045  1308
