CCSDS_OMM_VERS = 2.0
CREATION_DATE  = 
ORIGINATOR     = 

OBJECT_NAME    = 2025-292H
OBJECT_ID      = 2025-292H
CENTER_NAME    = EARTH
REF_FRAME      = TEME
TIME_SYSTEM    = UTC
MEAN_ELEMENT_THEORY = SGP/SGP4

EPOCH          = 2025-12-19T22:05:42.351648
MEAN_MOTION    = 15.04975509
ECCENTRICITY   = .00141532
INCLINATION    = 97.6581
RA_OF_ASC_NODE = 66.4150
ARG_OF_PERICENTER = 252.6127
MEAN_ANOMALY   = 107.3552

EPHEMERIS_TYPE = 0
CLASSIFICATION_TYPE = U
NORAD_CAT_ID   = 67000
ELEMENT_SET_NO = 999
REV_AT_EPOCH   = 134
BSTAR          = .30664517E-3
MEAN_MOTION_DOT = .4295E-4
MEAN_MOTION_DDOT = 0

CCSDS_OMM_VERS = 2.0
CREATION_DATE  = 
ORIGINATOR     = 

OBJECT_NAME    = 2025-292J
OBJECT_ID      = 2025-292J
CENTER_NAME    = EARTH
REF_FRAME      = TEME
TIME_SYSTEM    = UTC
MEAN_ELEMENT_THEORY = SGP/SGP4

EPOCH          = 2025-12-19T22:11:12.793632
MEAN_MOTION    = 15.04374679
ECCENTRICITY   = .0014377
INCLINATION    = 97.6561
RA_OF_ASC_NODE = 66.4075
ARG_OF_PERICENTER = 241.6916
MEAN_ANOMALY   = 118.2860

EPHEMERIS_TYPE = 0
CLASSIFICATION_TYPE = U
NORAD_CAT_ID   = 67001
ELEMENT_SET_NO = 999
REV_AT_EPOCH   = 147
BSTAR          = .26181174E-3
MEAN_MOTION_DOT = .3599E-4
MEAN_MOTION_DDOT = 0

CCSDS_OMM_VERS = 2.0
CREATION_DATE  = 
ORIGINATOR     = 

OBJECT_NAME    = ZK-1A R/B
OBJECT_ID      = 2025-292K
CENTER_NAME    = EARTH
REF_FRAME      = TEME
TIME_SYSTEM    = UTC
MEAN_ELEMENT_THEORY = SGP/SGP4

EPOCH          = 2025-12-19T16:04:57.088416
MEAN_MOTION    = 15.56781805
ECCENTRICITY   = .02121715
INCLINATION    = 97.7225
RA_OF_ASC_NODE = 67.0138
ARG_OF_PERICENTER = 340.4645
MEAN_ANOMALY   = 18.8564

EPHEMERIS_TYPE = 0
CLASSIFICATION_TYPE = U
NORAD_CAT_ID   = 67002
ELEMENT_SET_NO = 999
REV_AT_EPOCH   = 147
BSTAR          = .625159E-3
MEAN_MOTION_DOT = .130666E-2
MEAN_MOTION_DDOT = .6714711E-5

CCSDS_OMM_VERS = 2.0
CREATION_DATE  = 
ORIGINATOR     = 

OBJECT_NAME    = STARLINK-35660
OBJECT_ID      = 2025-293A
CENTER_NAME    = EARTH
REF_FRAME      = TEME
TIME_SYSTEM    = UTC
MEAN_ELEMENT_THEORY = SGP/SGP4

EPOCH          = 2025-12-19T22:00:01.999584
MEAN_MOTION    = 15.92679957
ECCENTRICITY   = .00039148
INCLINATION    = 69.9945
RA_OF_ASC_NODE = 302.9602
ARG_OF_PERICENTER = 267.5711
MEAN_ANOMALY   = 186.9081

EPHEMERIS_TYPE = 0
CLASSIFICATION_TYPE = U
NORAD_CAT_ID   = 67003
ELEMENT_SET_NO = 999
REV_AT_EPOCH   = 133
BSTAR          = -.3292735E-2
MEAN_MOTION_DOT = -.1131101E-1
MEAN_MOTION_DDOT = .38203616E-3

CCSDS_OMM_VERS = 2.0
CREATION_DATE  = 
ORIGINATOR     = 

OBJECT_NAME    = STARLINK-35913
OBJECT_ID      = 2025-293B
CENTER_NAME    = EARTH
REF_FRAME      = TEME
TIME_SYSTEM    = UTC
MEAN_ELEMENT_THEORY = SGP/SGP4

EPOCH          = 2025-12-19T22:00:01.999584
MEAN_MOTION    = 15.92728353
ECCENTRICITY   = .00038819
INCLINATION    = 69.9946
RA_OF_ASC_NODE = 302.9577
ARG_OF_PERICENTER = 267.7496
MEAN_ANOMALY   = 188.7476

EPHEMERIS_TYPE = 0
CLASSIFICATION_TYPE = U
NORAD_CAT_ID   = 67004
ELEMENT_SET_NO = 999
REV_AT_EPOCH   = 133
BSTAR          = -.32947825E-2
MEAN_MOTION_DOT = -.113461E-1
MEAN_MOTION_DDOT = .38441427E-3

CCSDS_OMM_VERS = 2.0
CREATION_DATE  = 
ORIGINATOR     = 

OBJECT_NAME    = STARLINK-36148
OBJECT_ID      = 2025-293C
CENTER_NAME    = EARTH
REF_FRAME      = TEME
TIME_SYSTEM    = UTC
MEAN_ELEMENT_THEORY = SGP/SGP4

EPOCH          = 2025-12-19T22:00:01.999584
MEAN_MOTION    = 15.92780013
ECCENTRICITY   = .00039599
INCLINATION    = 69.9948
RA_OF_ASC_NODE = 302.9556
ARG_OF_PERICENTER = 268.5101
MEAN_ANOMALY   = 190.1334

EPHEMERIS_TYPE = 0
CLASSIFICATION_TYPE = U
NORAD_CAT_ID   = 67005
ELEMENT_SET_NO = 999
REV_AT_EPOCH   = 133
BSTAR          = -.33025907E-2
MEAN_MOTION_DOT = -.1140342E-1
MEAN_MOTION_DDOT = .38820848E-3

CCSDS_OMM_VERS = 2.0
CREATION_DATE  = 
ORIGINATOR     = 

OBJECT_NAME    = STARLINK-36156
OBJECT_ID      = 2025-293D
CENTER_NAME    = EARTH
REF_FRAME      = TEME
TIME_SYSTEM    = UTC
MEAN_ELEMENT_THEORY = SGP/SGP4

EPOCH          = 2025-12-19T22:00:01.999584
MEAN_MOTION    = 15.92897948
ECCENTRICITY   = .00039436
INCLINATION    = 69.9947
RA_OF_ASC_NODE = 302.9489
ARG_OF_PERICENTER = 267.5616
MEAN_ANOMALY   = 196.1730

EPHEMERIS_TYPE = 0
CLASSIFICATION_TYPE = U
NORAD_CAT_ID   = 67006
ELEMENT_SET_NO = 999
REV_AT_EPOCH   = 133
BSTAR          = -.33136787E-2
MEAN_MOTION_DOT = -.1151115E-1
MEAN_MOTION_DDOT = .39547422E-3

CCSDS_OMM_VERS = 2.0
CREATION_DATE  = 
ORIGINATOR     = 

OBJECT_NAME    = STARLINK-36123
OBJECT_ID      = 2025-293E
CENTER_NAME    = EARTH
REF_FRAME      = TEME
TIME_SYSTEM    = UTC
MEAN_ELEMENT_THEORY = SGP/SGP4

EPOCH          = 2025-12-19T22:00:01.999584
MEAN_MOTION    = 15.92841746
ECCENTRICITY   = .00039116
INCLINATION    = 69.9945
RA_OF_ASC_NODE = 302.9517
ARG_OF_PERICENTER = 267.6451
MEAN_ANOMALY   = 193.7907

EPHEMERIS_TYPE = 0
CLASSIFICATION_TYPE = U
NORAD_CAT_ID   = 67007
ELEMENT_SET_NO = 999
REV_AT_EPOCH   = 133
BSTAR          = -.33044024E-2
MEAN_MOTION_DOT = -.1144582E-1
MEAN_MOTION_DDOT = .39111988E-3

CCSDS_OMM_VERS = 2.0
CREATION_DATE  = 
ORIGINATOR     = 

OBJECT_NAME    = STARLINK-36163
OBJECT_ID      = 2025-293F
CENTER_NAME    = EARTH
REF_FRAME      = TEME
TIME_SYSTEM    = UTC
MEAN_ELEMENT_THEORY = SGP/SGP4

EPOCH          = 2025-12-19T22:00:01.999584
MEAN_MOTION    = 15.92965362
ECCENTRICITY   = .00038939
INCLINATION    = 69.9948
RA_OF_ASC_NODE = 302.9454
ARG_OF_PERICENTER = 267.2511
MEAN_ANOMALY   = 199.5293

EPHEMERIS_TYPE = 0
CLASSIFICATION_TYPE = U
NORAD_CAT_ID   = 67008
ELEMENT_SET_NO = 999
REV_AT_EPOCH   = 133
BSTAR          = -.3320168E-2
MEAN_MOTION_DOT = -.1157352E-1
MEAN_MOTION_DDOT = .39970903E-3

CCSDS_OMM_VERS = 2.0
CREATION_DATE  = 
ORIGINATOR     = 

OBJECT_NAME    = STARLINK-36118
OBJECT_ID      = 2025-293G
CENTER_NAME    = EARTH
REF_FRAME      = TEME
TIME_SYSTEM    = UTC
MEAN_ELEMENT_THEORY = SGP/SGP4

EPOCH          = 2025-12-19T22:00:01.999584
MEAN_MOTION    = 15.93021625
ECCENTRICITY   = .00038987
INCLINATION    = 69.9947
RA_OF_ASC_NODE = 302.9425
ARG_OF_PERICENTER = 266.2848
MEAN_ANOMALY   = 202.9862

EPHEMERIS_TYPE = 0
CLASSIFICATION_TYPE = U
NORAD_CAT_ID   = 67009
ELEMENT_SET_NO = 999
REV_AT_EPOCH   = 130
BSTAR          = -.33110622E-2
MEAN_MOTION_DOT = -.115757E-1
MEAN_MOTION_DDOT = .40007535E-3

CCSDS_OMM_VERS = 2.0
CREATION_DATE  = 
ORIGINATOR     = 

OBJECT_NAME    = STARLINK-36189
OBJECT_ID      = 2025-293H
CENTER_NAME    = EARTH
REF_FRAME      = TEME
TIME_SYSTEM    = UTC
MEAN_ELEMENT_THEORY = SGP/SGP4

EPOCH          = 2025-12-19T22:00:01.999584
MEAN_MOTION    = 15.93133170
ECCENTRICITY   = .00039118
INCLINATION    = 69.9948
RA_OF_ASC_NODE = 302.9371
ARG_OF_PERICENTER = 266.4810
MEAN_ANOMALY   = 207.2154

EPHEMERIS_TYPE = 0
CLASSIFICATION_TYPE = U
NORAD_CAT_ID   = 67010
ELEMENT_SET_NO = 999
REV_AT_EPOCH   = 133
BSTAR          = -.33319592E-2
MEAN_MOTION_DOT = -.1171558E-1
MEAN_MOTION_DDOT = .40950299E-3

CCSDS_OMM_VERS = 2.0
CREATION_DATE  = 
ORIGINATOR     = 

OBJECT_NAME    = STARLINK-36167
OBJECT_ID      = 2025-293J
CENTER_NAME    = EARTH
REF_FRAME      = TEME
TIME_SYSTEM    = UTC
MEAN_ELEMENT_THEORY = SGP/SGP4

EPOCH          = 2025-12-19T22:00:01.999584
MEAN_MOTION    = 15.93073045
ECCENTRICITY   = .00038863
INCLINATION    = 69.9943
RA_OF_ASC_NODE = 302.9397
ARG_OF_PERICENTER = 266.5494
MEAN_ANOMALY   = 204.6149

EPHEMERIS_TYPE = 0
CLASSIFICATION_TYPE = U
NORAD_CAT_ID   = 67011
ELEMENT_SET_NO = 999
REV_AT_EPOCH   = 130
BSTAR          = -.3332836E-2
MEAN_MOTION_DOT = -.1168212E-1
MEAN_MOTION_DDOT = .40710038E-3

